[
    {
        "Altitude(m)": 703335.3729202306,
        "Argument of Periapsis(deg)": 0.0011390121186627068,
        "Eccentricity": 0.0,
        "Inclination(deg)": 45.0,
        "Latitude(deg)": 0.7602419388560587,
        "Longitude(deg)": -174.29351430458806,
        "Mean Anomaly(deg)": 1.1533216647480466,
        "RAAN(deg)": 284.99892480585413,
        "Satellite Name": "Constellation 1 1254",
        "Satellite Number": 1254,
        "Semi-Major Axis(m)": 7083131.272910544,
        "Time(s)": 19
    },
    {
        "Altitude(m)": 703330.1414341314,
        "Argument of Periapsis(deg)": 0.0011989601249081123,
        "Eccentricity": 0.0,
        "Inclination(deg)": 45.0,
        "Latitude(deg)": 0.8034548534155096,
        "Longitude(deg)": -174.25475616510744,
        "Mean Anomaly(deg)": 1.214022804997984,
        "RAAN(deg)": 284.9988682166886,
        "Satellite Name": "Constellation 1 1254",
        "Satellite Number": 1254,
        "Semi-Major Axis(m)": 7083131.272910544,
        "Time(s)": 20
    },
    {
        "Altitude(m)": 703324.930706659,
        "Argument of Periapsis(deg)": 0.001258908131153518,
        "Eccentricity": 0.0,
        "Inclination(deg)": 45.0,
        "Latitude(deg)": 0.8466673730491732,
        "Longitude(deg)": -174.2159970594227,
        "Mean Anomaly(deg)": 1.2747239452478707,
        "RAAN(deg)": 284.998811627523,
        "Satellite Name": "Constellation 1 1254",
        "Satellite Number": 1254,
        "Semi-Major Axis(m)": 7083131.272910544,
        "Time(s)": 21
    },
    {
        "Altitude(m)": 703319.7407424314,
        "Argument of Periapsis(deg)": 0.0013188561373989236,
        "Eccentricity": 0.0,
        "Inclination(deg)": 45.0,
        "Latitude(deg)": 0.8898794727982806,
        "Longitude(deg)": -174.1772371073059,
        "Mean Anomaly(deg)": 1.335425085497757,
        "RAAN(deg)": 284.99875503835744,
        "Satellite Name": "Constellation 1 1254",
        "Satellite Number": 1254,
        "Semi-Major Axis(m)": 7083131.272910544,
        "Time(s)": 22
    },
    {
        "Altitude(m)": 703314.5715459572,
        "Argument of Periapsis(deg)": 0.0013788041436443293,
        "Eccentricity": 0.0,
        "Inclination(deg)": 45.0,
        "Latitude(deg)": 0.9330911277010383,
        "Longitude(deg)": -174.13847592423545,
        "Mean Anomaly(deg)": 1.3961262257476437,
        "RAAN(deg)": 284.9986984491919,
        "Satellite Name": "Constellation 1 1254",
        "Satellite Number": 1254,
        "Semi-Major Axis(m)": 7083131.272910544,
        "Time(s)": 23
    },
    {
        "Altitude(m)": 703309.4231216728,
        "Argument of Periapsis(deg)": 0.001438752149889735,
        "Eccentricity": 0.0,
        "Inclination(deg)": 45.0,
        "Latitude(deg)": 0.9763023127943962,
        "Longitude(deg)": -174.09971362997825,
        "Mean Anomaly(deg)": 1.456827365997581,
        "RAAN(deg)": 284.9986418600263,
        "Satellite Name": "Constellation 1 1254",
        "Satellite Number": 1254,
        "Semi-Major Axis(m)": 7083131.272910544,
        "Time(s)": 24
    },
    {
        "Altitude(m)": 703304.2954739089,
        "Argument of Periapsis(deg)": 0.0014987001561351404,
        "Eccentricity": 0.0,
        "Inclination(deg)": 45.0,
        "Latitude(deg)": 1.0195130031127189,
        "Longitude(deg)": -174.06095017620137,
        "Mean Anomaly(deg)": 1.5175285062474673,
        "RAAN(deg)": 284.99858527086076,
        "Satellite Name": "Constellation 1 1254",
        "Satellite Number": 1254,
        "Semi-Major Axis(m)": 7083131.272910544,
        "Time(s)": 25
    },
    {
        "Altitude(m)": 703299.1886069048,
        "Argument of Periapsis(deg)": 0.001558648162380546,
        "Eccentricity": 0.0,
        "Inclination(deg)": 45.0,
        "Latitude(deg)": 1.0627231736880003,
        "Longitude(deg)": -174.02218551456923,
        "Mean Anomaly(deg)": 1.5782296464973538,
        "RAAN(deg)": 284.9985286816952,
        "Satellite Name": "Constellation 1 1254",
        "Satellite Number": 1254,
        "Semi-Major Axis(m)": 7083131.272910544,
        "Time(s)": 26
    },
    {
        "Altitude(m)": 703294.1025248008,
        "Argument of Periapsis(deg)": 0.0016185961686259519,
        "Eccentricity": 0.0,
        "Inclination(deg)": 45.0,
        "Latitude(deg)": 1.1059327995497776,
        "Longitude(deg)": -173.9834195967432,
        "Mean Anomaly(deg)": 1.6389307867472402,
        "RAAN(deg)": 284.9984720925296,
        "Satellite Name": "Constellation 1 1254",
        "Satellite Number": 1254,
        "Semi-Major Axis(m)": 7083131.272910544,
        "Time(s)": 27
    },
    {
        "Altitude(m)": 703289.0372316542,
        "Argument of Periapsis(deg)": 0.0016785441748713573,
        "Eccentricity": 0.0,
        "Inclination(deg)": 45.0,
        "Latitude(deg)": 1.1491418557250388,
        "Longitude(deg)": -173.94465237438158,
        "Mean Anomaly(deg)": 1.6996319269971778,
        "RAAN(deg)": 284.9984155033641,
        "Satellite Name": "Constellation 1 1254",
        "Satellite Number": 1254,
        "Semi-Major Axis(m)": 7083131.272910544,
        "Time(s)": 28
    },
    {
        "Altitude(m)": 703283.9927314242,
        "Argument of Periapsis(deg)": 0.001738492181116763,
        "Eccentricity": 0.0,
        "Inclination(deg)": 45.0,
        "Latitude(deg)": 1.1923503172381278,
        "Longitude(deg)": -173.9058837991395,
        "Mean Anomaly(deg)": 1.760333067247064,
        "RAAN(deg)": 284.9983589141985,
        "Satellite Name": "Constellation 1 1254",
        "Satellite Number": 1254,
        "Semi-Major Axis(m)": 7083131.272910544,
        "Time(s)": 29
    },
    {
        "Altitude(m)": 703278.9690279714,
        "Argument of Periapsis(deg)": 0.0017984401873621684,
        "Eccentricity": 0.0,
        "Inclination(deg)": 45.0,
        "Latitude(deg)": 1.2355581591109723,
        "Longitude(deg)": -173.86711399076611,
        "Mean Anomaly(deg)": 1.8210342074969506,
        "RAAN(deg)": 284.99830232503285,
        "Satellite Name": "Constellation 1 1254",
        "Satellite Number": 1254,
        "Semi-Major Axis(m)": 7083131.272910544,
        "Time(s)": 30
    },
    {
        "Altitude(m)": 703273.9661250717,
        "Argument of Periapsis(deg)": 0.0018583881936075745,
        "Eccentricity": 0.0,
        "Inclination(deg)": 45.0,
        "Latitude(deg)": 1.2787653563617403,
        "Longitude(deg)": -173.82834256471574,
        "Mean Anomaly(deg)": 1.881735347746888,
        "RAAN(deg)": 284.99824573586733,
        "Satellite Name": "Constellation 1 1254",
        "Satellite Number": 1254,
        "Semi-Major Axis(m)": 7083131.272910544,
        "Time(s)": 31
    },
    {
        "Altitude(m)": 703268.9840263946,
        "Argument of Periapsis(deg)": 0.0019183361998529795,
        "Eccentricity": 0.0,
        "Inclination(deg)": 45.0,
        "Latitude(deg)": 1.321971884006623,
        "Longitude(deg)": -173.78956964073046,
        "Mean Anomaly(deg)": 1.9424364879967746,
        "RAAN(deg)": 284.99818914670175,
        "Satellite Name": "Constellation 1 1254",
        "Satellite Number": 1254,
        "Semi-Major Axis(m)": 7083131.272910544,
        "Time(s)": 32
    },
    {
        "Altitude(m)": 703264.0227355266,
        "Argument of Periapsis(deg)": 0.0019782842060983856,
        "Eccentricity": 0.0,
        "Inclination(deg)": 45.0,
        "Latitude(deg)": 1.3651777170584969,
        "Longitude(deg)": -173.7507951704519,
        "Mean Anomaly(deg)": 2.003137628246661,
        "RAAN(deg)": 284.9981325575362,
        "Satellite Name": "Constellation 1 1254",
        "Satellite Number": 1254,
        "Semi-Major Axis(m)": 7083131.272910544,
        "Time(s)": 33
    },
    {
        "Altitude(m)": 703259.0822559608,
        "Argument of Periapsis(deg)": 0.0020382322123437906,
        "Eccentricity": 0.0,
        "Inclination(deg)": 45.0,
        "Latitude(deg)": 1.408382830527139,
        "Longitude(deg)": -173.71201910551775,
        "Mean Anomaly(deg)": 2.0638387684965473,
        "RAAN(deg)": 284.99807596837064,
        "Satellite Name": "Constellation 1 1254",
        "Satellite Number": 1254,
        "Semi-Major Axis(m)": 7083131.272910544,
        "Time(s)": 34
    },
    {
        "Altitude(m)": 703254.1625910839,
        "Argument of Periapsis(deg)": 0.002098180218589197,
        "Eccentricity": 0.0,
        "Inclination(deg)": 45.0,
        "Latitude(deg)": 1.4515871994191445,
        "Longitude(deg)": -173.67324139756212,
        "Mean Anomaly(deg)": 2.1245399087464847,
        "RAAN(deg)": 284.998019379205,
        "Satellite Name": "Constellation 1 1254",
        "Satellite Number": 1254,
        "Semi-Major Axis(m)": 7083131.272910544,
        "Time(s)": 35
    },
    {
        "Altitude(m)": 703249.2637442078,
        "Argument of Periapsis(deg)": 0.002158128224834602,
        "Eccentricity": 0.0,
        "Inclination(deg)": 45.0,
        "Latitude(deg)": 1.4947907987378282,
        "Longitude(deg)": -173.63446199821493,
        "Mean Anomaly(deg)": 2.1852410489963714,
        "RAAN(deg)": 284.9979627900395,
        "Satellite Name": "Constellation 1 1254",
        "Satellite Number": 1254,
        "Semi-Major Axis(m)": 7083131.272910544,
        "Time(s)": 36
    },
    {
        "Altitude(m)": 703244.3857185354,
        "Argument of Periapsis(deg)": 0.002218076231080008,
        "Eccentricity": 0.0,
        "Inclination(deg)": 45.0,
        "Latitude(deg)": 1.5379936034834518,
        "Longitude(deg)": -173.59568102719945,
        "Mean Anomaly(deg)": 2.245942189246258,
        "RAAN(deg)": 284.9979062008739,
        "Satellite Name": "Constellation 1 1254",
        "Satellite Number": 1254,
        "Semi-Major Axis(m)": 7083131.272910544,
        "Time(s)": 37
    }
]